{"type": "FeatureCollection", "features": [ {"type": "Feature", "properties": {"norad_id": 30703, "name": "FENGYUN 1C DEB", "group": "fengyun-1c-debris", "lat": -80.81301945580621, "lon": 69.37329361532983, "alt_km": 753.6427951490623, "timestamp": "2025-12-14T22:38:41.036215+00:00", "meta": {"OBJECT_NAME": "FENGYUN 1C DEB", "OBJECT_ID": "1999-025ARM", "EPOCH": "2025-12-13T21:59:00.499200", "MEAN_MOTION": 14.19333809, "ECCENTRICITY": 0.0117589, "INCLINATION": 99.1422, "RA_OF_ASC_NODE": 332.9827, "ARG_OF_PERICENTER": 288.75, "MEAN_ANOMALY": 133.3043, "EPHEMERIS_TYPE": 0, "CLASSIFICATION_TYPE": "U", "NORAD_CAT_ID": 30703, "ELEMENT_SET_NO": 999, "REV_AT_EPOCH": 96557, "BSTAR": 0.0014421849, "MEAN_MOTION_DOT": 3.198e-05, "MEAN_MOTION_DDOT": 0}, "tle": {"line1": "1 30703U 99025ARM 25347.91597800  .00003198  00000+0  14422-2 0  9993", "line2": "2 30703  99.1422 332.9827 0117589 288.7500 133.3043 14.19333809965577"}}, "geometry": {"type": "Point", "coordinates": [69.37329361532983, -80.81301945580621]}}, {"type": "Feature", "properties": {"norad_id": 30704, "name": "FENGYUN 1C DEB", "group": "fengyun-1c-debris", "lat": 72.5351504803258, "lon": -42.142513484812945, "alt_km": 823.4442436916315, "timestamp": "2025-12-14T22:38:41.036225+00:00", "meta": {"OBJECT_NAME": "FENGYUN 1C DEB", "OBJECT_ID": "1999-025ARN", "EPOCH": "2025-12-14T00:21:03.034944", "MEAN_MOTION": 14.02049935, "ECCENTRICITY": 0.00817237, "INCLINATION": 98.8726, "RA_OF_ASC_NODE": 346.7207, "ARG_OF_PERICENTER": 96.3522, "MEAN_ANOMALY": 332.8857, "EPHEMERIS_TYPE": 0, "CLASSIFICATION_TYPE": "U", "NORAD_CAT_ID": 30704, "ELEMENT_SET_NO": 999, "REV_AT_EPOCH": 96129, "BSTAR": 0.0005628472, "MEAN_MOTION_DOT": 8.42e-06, "MEAN_MOTION_DDOT": 0}, "tle": {"line1": "1 30704U 99025ARN 25348.01461846  .00000842  00000+0  56285-3 0  9993", "line2": "2 30704  98.8726 346.7207 0081723  96.3522 332.8857 14.02049935961293"}}, "geometry": {"type": "Point", "coordinates": [-42.142513484812945, 72.5351504803258]}}, {"type": "Feature", "properties": {"norad_id": 30705, "name": "FENGYUN 1C DEB", "group": "fengyun-1c-debris", "lat": -30.407768071071562, "lon": 101.03179786028107, "alt_km": 872.8224179963572, "timestamp": "2025-12-14T22:38:41.036235+00:00", "meta": {"OBJECT_NAME": "FENGYUN 1C DEB", "OBJECT_ID": "1999-025ARP", "EPOCH": "2025-12-12T06:36:51.432192", "MEAN_MOTION": 13.8131694, "ECCENTRICITY": 0.01998378, "INCLINATION": 102.1799, "RA_OF_ASC_NODE": 90.3171, "ARG_OF_PERICENTER": 283.2492, "MEAN_ANOMALY": 103.156, "EPHEMERIS_TYPE": 0, "CLASSIFICATION_TYPE": "U", "NORAD_CAT_ID": 30705, "ELEMENT_SET_NO": 999, "REV_AT_EPOCH": 94003, "BSTAR": 0.0034153268, "MEAN_MOTION_DOT": 4.155e-05, "MEAN_MOTION_DDOT": 0}, "tle": {"line1": "1 30705U 99025ARP 25346.27559528  .00004155  00000+0  34153-2 0  9995", "line2": "2 30705 102.1799  90.3171 0199837 283.2492 103.1560 13.81316940940032"}}, "geometry": {"type": "Point", "coordinates": [101.03179786028107, -30.407768071071562]}}, {"type": "Feature", "properties": {"norad_id": 30706, "name": "FENGYUN 1C DEB", "group": "fengyun-1c-debris", "lat": -78.12232922695553, "lon": 14.24420822042209, "alt_km": 825.7171981206338, "timestamp": "2025-12-14T22:38:41.036245+00:00", "meta": {"OBJECT_NAME": "FENGYUN 1C DEB", "OBJECT_ID": "1999-025ARQ", "EPOCH": "2025-12-14T04:35:10.512096", "MEAN_MOTION": 14.26431782, "ECCENTRICITY": 0.00266553, "INCLINATION": 99.0654, "RA_OF_ASC_NODE": 242.8499, "ARG_OF_PERICENTER": 123.9995, "MEAN_ANOMALY": 236.3721, "EPHEMERIS_TYPE": 0, "CLASSIFICATION_TYPE": "U", "NORAD_CAT_ID": 30706, "ELEMENT_SET_NO": 999, "REV_AT_EPOCH": 97648, "BSTAR": 0.00099696502, "MEAN_MOTION_DOT": 2.361e-05, "MEAN_MOTION_DDOT": 0}, "tle": {"line1": "1 30706U 99025ARQ 25348.19109389  .00002361  00000+0  99697-3 0  9997", "line2": "2 30706  99.0654 242.8499 0026655 123.9995 236.3721 14.26431782976487"}}, "geometry": {"type": "Point", "coordinates": [14.24420822042209, -78.12232922695553]}}, {"type": "Feature", "properties": {"norad_id": 30707, "name": "FENGYUN 1C DEB", "group": "fengyun-1c-debris", "lat": 43.49823510152096, "lon": -127.45873312193326, "alt_km": 792.8621091791365, "timestamp": "2025-12-14T22:38:41.036255+00:00", "meta": {"OBJECT_NAME": "FENGYUN 1C DEB", "OBJECT_ID": "1999-025ARR", "EPOCH": "2025-12-13T21:01:23.189376", "MEAN_MOTION": 14.2669733, "ECCENTRICITY": 0.00276867, "INCLINATION": 99.4135, "RA_OF_ASC_NODE": 42.3368, "ARG_OF_PERICENTER": 66.7304, "MEAN_ANOMALY": 348.5225, "EPHEMERIS_TYPE": 0, "CLASSIFICATION_TYPE": "U", "NORAD_CAT_ID": 30707, "ELEMENT_SET_NO": 999, "REV_AT_EPOCH": 96819, "BSTAR": 0.001807651, "MEAN_MOTION_DOT": 4.342e-05, "MEAN_MOTION_DDOT": 0}, "tle": {"line1": "1 30707U 99025ARR 25347.87596284  .00004342  00000+0  18077-2 0  9999", "line2": "2 30707  99.4135  42.3368 0027686  66.7304 348.5225 14.26697330968194"}}, "geometry": {"type": "Point", "coordinates": [-127.45873312193326, 43.49823510152096]}}, {"type": "Feature", "properties": {"norad_id": 30708, "name": "FENGYUN 1C DEB", "group": "fengyun-1c-debris", "lat": 79.0823620611923, "lon": -49.94790850461119, "alt_km": 846.0503893411515, "timestamp": "2025-12-14T22:38:41.036265+00:00", "meta": {"OBJECT_NAME": "FENGYUN 1C DEB", "OBJECT_ID": "1999-025ARS", "EPOCH": "2025-12-14T07:01:27.341184", "MEAN_MOTION": 14.12179995, "ECCENTRICITY": 0.00081348, "INCLINATION": 98.6905, "RA_OF_ASC_NODE": 1.8819, "ARG_OF_PERICENTER": 190.0958, "MEAN_ANOMALY": 186.3935, "EPHEMERIS_TYPE": 0, "CLASSIFICATION_TYPE": "U", "NORAD_CAT_ID": 30708, "ELEMENT_SET_NO": 999, "REV_AT_EPOCH": 96858, "BSTAR": 0.00018866311, "MEAN_MOTION_DOT": 3.04e-06, "MEAN_MOTION_DDOT": 0}, "tle": {"line1": "1 30708U 99025ARS 25348.29267756  .00000304  00000+0  18866-3 0  9997", "line2": "2 30708  98.6905   1.8819 0008134 190.0958 186.3935 14.12179995968581"}}, "geometry": {"type": "Point", "coordinates": [-49.94790850461119, 79.0823620611923]}}, {"type": "Feature", "properties": {"norad_id": 30709, "name": "FENGYUN 1C DEB", "group": "fengyun-1c-debris", "lat": 26.903501939310413, "lon": 151.65152004259636, "alt_km": 853.8223515421341, "timestamp": "2025-12-14T22:38:41.036275+00:00", "meta": {"OBJECT_NAME": "FENGYUN 1C DEB", "OBJECT_ID": "1999-025ART", "EPOCH": "2025-12-14T04:58:40.690560", "MEAN_MOTION": 14.1750078, "ECCENTRICITY": 0.00822592, "INCLINATION": 99.1442, "RA_OF_ASC_NODE": 326.2065, "ARG_OF_PERICENTER": 266.0258, "MEAN_ANOMALY": 93.1509, "EPHEMERIS_TYPE": 0, "CLASSIFICATION_TYPE": "U", "NORAD_CAT_ID": 30709, "ELEMENT_SET_NO": 999, "REV_AT_EPOCH": 96017, "BSTAR": 0.0029267436, "MEAN_MOTION_DOT": 6.095e-05, "MEAN_MOTION_DDOT": 0}, "tle": {"line1": "1 30709U 99025ART 25348.20741540  .00006095  00000+0  29267-2 0  9996", "line2": "2 30709  99.1442 326.2065 0082259 266.0258  93.1509 14.17500780960172"}}, "geometry": {"type": "Point", "coordinates": [151.65152004259636, 26.903501939310413]}}, {"type": "Feature", "properties": {"norad_id": 30710, "name": "FENGYUN 1C DEB", "group": "fengyun-1c-debris", "lat": -25.558945402400717, "lon": 52.76307202367201, "alt_km": 1017.8712277940267, "timestamp": "2025-12-14T22:38:41.036285+00:00", "meta": {"OBJECT_NAME": "FENGYUN 1C DEB", "OBJECT_ID": "1999-025ARU", "EPOCH": "2025-12-13T23:21:55.806048", "MEAN_MOTION": 13.9415774, "ECCENTRICITY": 0.02236792, "INCLINATION": 102.7459, "RA_OF_ASC_NODE": 237.6434, "ARG_OF_PERICENTER": 80.3174, "MEAN_ANOMALY": 297.8306, "EPHEMERIS_TYPE": 0, "CLASSIFICATION_TYPE": "U", "NORAD_CAT_ID": 30710, "ELEMENT_SET_NO": 999, "REV_AT_EPOCH": 94806, "BSTAR": 0.002734439, "MEAN_MOTION_DOT": 4.394e-05, "MEAN_MOTION_DDOT": 0}, "tle": {"line1": "1 30710U 99025ARU 25347.97356257  .00004394  00000+0  27344-2 0  9992", "line2": "2 30710 102.7459 237.6434 0223679  80.3174 297.8306 13.94157740948065"}}, "geometry": {"type": "Point", "coordinates": [52.76307202367201, -25.558945402400717]}}, {"type": "Feature", "properties": {"norad_id": 30714, "name": "FENGYUN 1C DEB", "group": "fengyun-1c-debris", "lat": -77.79160288542977, "lon": 171.4297932373514, "alt_km": 842.9396293836444, "timestamp": "2025-12-14T22:38:41.036295+00:00", "meta": {"OBJECT_NAME": "FENGYUN 1C DEB", "OBJECT_ID": "1999-025ARY", "EPOCH": "2025-12-14T02:50:27.981888", "MEAN_MOTION": 14.03294392, "ECCENTRICITY": 0.00666369, "INCLINATION": 98.8372, "RA_OF_ASC_NODE": 36.603, "ARG_OF_PERICENTER": 278.7774, "MEAN_ANOMALY": 136.702, "EPHEMERIS_TYPE": 0, "CLASSIFICATION_TYPE": "U", "NORAD_CAT_ID": 30714, "ELEMENT_SET_NO": 999, "REV_AT_EPOCH": 96012, "BSTAR": 0.00063129095, "MEAN_MOTION_DOT": 9.61e-06, "MEAN_MOTION_DDOT": 0}, "tle": {"line1": "1 30714U 99025ARY 25348.11837942  .00000961  00000+0  63129-3 0  9996", "line2": "2 30714  98.8372  36.6030 0066636 278.7774 136.7020 14.03294392960125"}}, "geometry": {"type": "Point", "coordinates": [171.4297932373514, -77.79160288542977]}}, {"type": "Feature", "properties": {"norad_id": 30715, "name": "FENGYUN 1C DEB", "group": "fengyun-1c-debris", "lat": -35.828616793023194, "lon": -128.43681746870627, "alt_km": 820.635428379137, "timestamp": "2025-12-14T22:38:41.036305+00:00", "meta": {"OBJECT_NAME": "FENGYUN 1C DEB", "OBJECT_ID": "1999-025ARZ", "EPOCH": "2025-12-14T02:57:29.562912", "MEAN_MOTION": 14.14707722, "ECCENTRICITY": 0.00677626, "INCLINATION": 98.9749, "RA_OF_ASC_NODE": 57.2904, "ARG_OF_PERICENTER": 164.4187, "MEAN_ANOMALY": 195.9093, "EPHEMERIS_TYPE": 0, "CLASSIFICATION_TYPE": "U", "NORAD_CAT_ID": 30715, "ELEMENT_SET_NO": 999, "REV_AT_EPOCH": 96201, "BSTAR": 0.0022848105, "MEAN_MOTION_DOT": 4.454e-05, "MEAN_MOTION_DDOT": 0}, "tle": {"line1": "1 30715U 99025ARZ 25348.12325883  .00004454  00000+0  22848-2 0  9997", "line2": "2 30715  98.9749  57.2904 0067762 164.4187 195.9093 14.14707722962019"}}, "geometry": {"type": "Point", "coordinates": [-128.43681746870627, -35.828616793023194]}}]}